K11H00P 22.23  0.15 K11A1  37.31731   45.96308  229.74785    3.74433  0.4800081  0.36943203   1.9235922    FO 190313   213   1  160 days 0.35 M-P 06  Find_Orb   0000 2011 HP                     20111001
